norad_id,name,regime,epoch,line1,line2,inclination,eccentricity,mean_motion,raan,arg_pericenter,mean_anomaly
40349,O3B FM11,MEO,25170.57059595,1 40349U 14083B   25170.57059595 -.00000010  00000-0  00000-0 0    12,2 40349   0.0438 359.2995 0003177  99.4309 261.3065  5.00115598191773,0.0438,0.0003177,5.00115598,359.2995,99.4309,261.3065
40349,O3B FM11,MEO,25171.37015788,1 40349U 14083B   25171.37015788 -.00000011  00000-0  00000-0 0    18,2 40349   0.0438 359.3736 0003179 100.1267 260.5365  5.00115604191819,0.0438,0.0003179,5.00115604,359.3736,100.1267,260.5365
40349,O3B FM11,MEO,25171.76993884,1 40349U 14083B   25171.76993884 -.00000012  00000-0  00000-0 0    14,2 40349   0.0438 359.3237 0003178 100.3762 260.3368  5.00115607191832,0.0438,0.0003178,5.00115607,359.3237,100.3762,260.3368
40349,O3B FM11,MEO,25172.36961058,1 40349U 14083B   25172.36961058 -.00000013  00000-0  00000-0 0    10,2 40349   0.0438 359.3946 0003183 101.0887 259.5531  5.00115585191861,0.0438,0.0003183,5.00115585,359.3946,101.0887,259.5531
40349,O3B FM11,MEO,25172.56950109,1 40349U 14083B   25172.56950109 -.00000013  00000-0  00000-0 0    17,2 40349   0.0438 359.4001 0003184 101.3211 259.3152  5.00115582191874,0.0438,0.0003184,5.00115582,359.4001,101.3211,259.3152
40349,O3B FM11,MEO,25173.36906293,1 40349U 14083B   25173.36906293 -.00000015  00000-0  00000-0 0    13,2 40349   0.0438 359.3590 0003185 101.9245 258.7524  5.00115588191917,0.0438,0.0003185,5.00115588,359.359,101.9245,258.7524
40349,O3B FM11,MEO,25174.36851512,1 40349U 14083B   25174.36851512 -.00000017  00000-0  00000-0 0    19,2 40349   0.0438 359.4531 0003189 102.7466 257.8354  5.00115596191966,0.0438,0.0003189,5.00115596,359.4531,102.7466,257.8354
40349,O3B FM11,MEO,25174.36851525,1 40349U 14083B   25174.36851525 -.00000017  00000-0  00000+0 0  8492,2 40349   0.0438 359.3931 0003188 102.6849 257.9572  5.00115586192123,0.0438,0.0003188,5.00115586,359.3931,102.6849,257.9572
40349,O3B FM11,MEO,25174.76829586,1 40349U 14083B   25174.76829586 -.00000019  00000-0  00000-0 0    11,2 40349   0.0438 359.4079 0003189 103.0652 257.5617  5.00115609191980,0.0438,0.0003189,5.00115609,359.4079,103.0652,257.5617
40349,O3B FM11,MEO,25175.36796721,1 40349U 14083B   25175.36796721 -.00000020  00000-0  00000-0 0    14,2 40349   0.0438 359.4316 0003192 103.5445 257.0582  5.00115610192016,0.0438,0.0003192,5.0011561,359.4316,103.5445,257.0582
40349,O3B FM11,MEO,25175.76774802,1 40349U 14083B   25175.76774802 -.00000021  00000-0  00000-0 0    15,2 40349   0.0438 359.4439 0003190 103.8566 256.7335  5.00115617192038,0.0438,0.000319,5.00115617,359.4439,103.8566,256.7335
40349,O3B FM11,MEO,25176.36741963,1 40349U 14083B   25176.36741963 -.00000023  00000-0  00000-0 0    16,2 40349   0.0438 359.4627 0003196 104.4885 256.0822  5.00115600192063,0.0438,0.0003196,5.001156,359.4627,104.4885,256.0822
40349,O3B FM11,MEO,25176.56730995,1 40349U 14083B   25176.56730995 -.00000023  00000-0  00000-0 0    11,2 40349   0.0438 359.5325 0003197 104.6206 255.8802  5.00115612192078,0.0438,0.0003197,5.00115612,359.5325,104.6206,255.8802
40349,O3B FM11,MEO,25177.36687176,1 40349U 14083B   25177.36687176 -.00000025  00000-0  00000-0 0    14,2 40349   0.0438 359.5627 0003201 105.3449 255.1250  5.00115619192118,0.0438,0.0003201,5.00115619,359.5627,105.3449,255.125
40349,O3B FM11,MEO,25177.56676227,1 40349U 14083B   25177.56676227 -.00000025  00000-0  00000-0 0    11,2 40349   0.0438 359.5091 0003201 105.5338 254.9896  5.00115617192124,0.0438,0.0003201,5.00115617,359.5091,105.5338,254.9896
40349,O3B FM11,MEO,25178.36632393,1 40349U 14083B   25178.36632393 -.00000026  00000-0  00000-0 0    17,2 40349   0.0438 359.5958 0003205 106.3048 254.1315  5.00115646192161,0.0438,0.0003205,5.00115646,359.5958,106.3048,254.1315
40349,O3B FM11,MEO,25178.56621433,1 40349U 14083B   25178.56621433 -.00000026  00000-0  00000+0 0  8558,2 40349   0.0438 359.6010 0003206 106.4957 253.9353  5.00115655192330,0.0438,0.0003206,5.00115655,359.601,106.4957,253.9353
40349,O3B FM11,MEO,25178.76610482,1 40349U 14083B   25178.76610482 -.00000026  00000-0  00000-0 0    16,2 40349   0.0438 359.5480 0003203 106.6474 253.8366  5.00115654192188,0.0438,0.0003203,5.00115654,359.548,106.6474,253.8366
40349,O3B FM11,MEO,25179.16588581,1 40349U 14083B   25179.16588581 -.00000027  00000-0  00000-0 0    16,2 40349   0.0438 359.5590 0003206 107.0267 253.4461  5.00115660192200,0.0438,0.0003206,5.0011566,359.559,107.0267,253.4461
40349,O3B FM11,MEO,25179.76555743,1 40349U 14083B   25179.76555743 -.00000027  00000-0  00000-0 0    16,2 40349   0.0438 359.5787 0003207 107.5684 252.8847  5.00115660192231,0.0438,0.0003207,5.0011566,359.5787,107.5684,252.8847
40349,O3B FM11,MEO,25180.16533846,1 40349U 14083B   25180.16533846 -.00000026  00000-0  00000-0 0    11,2 40349   0.0438 359.6460 0003209 107.9314 252.4544  5.00115668192256,0.0438,0.0003209,5.00115668,359.646,107.9314,252.4544
40349,O3B FM11,MEO,25180.76501013,1 40349U 14083B   25180.76501013 -.00000026  00000-0  00000-0 0    18,2 40349   0.0438 359.5966 0003211 108.4555 251.9797  5.00115670192282,0.0438,0.0003211,5.0011567,359.5966,108.4555,251.9797
40349,O3B FM11,MEO,25180.96490072,1 40349U 14083B   25180.96490072 -.00000026  00000-0  00000-0 0    12,2 40349   0.0438 359.5991 0003211 108.6391 251.7936  5.00115669192292,0.0438,0.0003211,5.00115669,359.5991,108.6391,251.7936
40349,O3B FM11,MEO,25182.36413455,1 40349U 14083B   25182.36413455 -.00000024  00000-0  00000-0 0    16,2 40349   0.0438 359.6758 0003212 109.6896 250.6669  5.00115693192362,0.0438,0.0003212,5.00115693,359.6758,109.6896,250.6669
40349,O3B FM11,MEO,25182.56402516,1 40349U 14083B   25182.56402516 -.00000023  00000-0  00000-0 0    13,2 40349   0.0438 359.6193 0003213 109.9044 250.5087  5.00115690192375,0.0438,0.0003213,5.0011569,359.6193,109.9044,250.5087
40349,O3B FM11,MEO,25182.96380634,1 40349U 14083B   25182.96380634 -.00000023  00000-0  00000+0 0  8560,2 40349   0.0438 359.6197 0003214 110.2825 250.1303  5.00115690192559,0.0438,0.0003214,5.0011569,359.6197,110.2825,250.1303
40349,O3B FM11,MEO,25183.36358742,1 40349U 14083B   25183.36358742 -.00000022  00000-0  00000-0 0    12,2 40349   0.0438 359.6729 0003214 110.5466 249.8132  5.00115699192413,0.0438,0.0003214,5.00115699,359.6729,110.5466,249.8132
40349,O3B FM11,MEO,25183.56347799,1 40349U 14083B   25183.56347799 -.00000022  00000-0  00000-0 0    14,2 40349   0.0438 359.6747 0003214 110.7318 249.6263  5.00115700192428,0.0438,0.0003214,5.001157,359.6747,110.7318,249.6263
40349,O3B FM11,MEO,25184.36304036,1 40349U 14083B   25184.36304036 -.00000021  00000-0  00000-0 0    19,2 40349   0.0440 359.5168 0003234 111.8220 248.6943  5.00115702192463,0.044,0.0003234,5.00115702,359.5168,111.822,248.6943
40349,O3B FM11,MEO,25184.56293085,1 40349U 14083B   25184.56293085 -.00000020  00000-0  00000-0 0    11,2 40349   0.0440 359.4583 0003235 112.0059 248.5691  5.00115708192473,0.044,0.0003235,5.00115708,359.4583,112.0059,248.5691
40349,O3B FM11,MEO,25185.36249324,1 40349U 14083B   25185.36249324 -.00000019  00000-0  00000-0 0    15,2 40349   0.0439 359.5813 0003226 112.3914 248.0608  5.00115695192514,0.0439,0.0003226,5.00115695,359.5813,112.3914,248.0608
40349,O3B FM11,MEO,25185.76227414,1 40349U 14083B   25185.76227414 -.00000019  00000-0  00000-0 0    15,2 40349   0.0439 359.5246 0003226 112.7035 247.8054  5.00115711192535,0.0439,0.0003226,5.00115711,359.5246,112.7035,247.8054
40349,O3B FM11,MEO,25186.36194565,1 40349U 14083B   25186.36194565 -.00000019  00000-0  00000-0 0    12,2 40349   0.0440 359.5773 0003226 113.1139 247.3424  5.00115719192569,0.044,0.0003226,5.00115719,359.5773,113.1139,247.3424
40349,O3B FM11,MEO,25186.56183616,1 40349U 14083B   25186.56183616 -.00000018  00000-0  00000-0 0    18,2 40349   0.0440 359.5757 0003223 113.2188 247.2391  5.00115719192576,0.044,0.0003223,5.00115719,359.5757,113.2188,247.2391
40349,O3B FM11,MEO,25187.16150772,1 40349U 14083B   25187.16150772 -.00000018  00000-0  00000-0 0    12,2 40349   0.0440 359.5573 0003215 113.6678 246.8085  5.00115714192605,0.044,0.0003215,5.00115714,359.5573,113.6678,246.8085
40349,O3B FM11,MEO,25187.96106962,1 40349U 14083B   25187.96106962 -.00000017  00000-0  00000-0 0    11,2 40349   0.0441 359.4245 0003205 114.3532 246.2557  5.00115718192632,0.0441,0.0003205,5.00115718,359.4245,114.3532,246.2557
40349,O3B FM11,MEO,25188.36085070,1 40349U 14083B   25188.36085070 -.00000017  00000-0  00000-0 0    12,2 40349   0.0441 359.5199 0003204 114.6484 245.8650  5.00115707192669,0.0441,0.0003204,5.00115707,359.5199,114.6484,245.865
40349,O3B FM11,MEO,25188.76063162,1 40349U 14083B   25188.76063162 -.00000017  00000-0  00000-0 0    14,2 40349   0.0441 359.5282 0003209 115.1033 245.4017  5.00115711192683,0.0441,0.0003209,5.00115711,359.5282,115.1033,245.4017
40349,O3B FM11,MEO,25189.36030309,1 40349U 14083B   25189.36030309 -.00000016  00000-0  00000-0 0    17,2 40349   0.0441 359.4725 0003211 115.6525 244.9081  5.00115706192711,0.0441,0.0003211,5.00115706,359.4725,115.6525,244.9081
40349,O3B FM11,MEO,25189.56019341,1 40349U 14083B   25189.56019341 -.00000016  00000-0  00000-0 0    12,2 40349   0.0441 359.5336 0003210 115.8306 244.6689  5.00115716192721,0.0441,0.000321,5.00115716,359.5336,115.8306,244.6689
40349,O3B FM11,MEO,25189.95997434,1 40349U 14083B   25189.95997434 -.00000016  00000-0  00000-0 0    13,2 40349   0.0441 359.4879 0003211 116.2013 244.3437  5.00115714192741,0.0441,0.0003211,5.00115714,359.4879,116.2013,244.3437
40349,O3B FM11,MEO,25190.55964567,1 40349U 14083B   25190.55964567 -.00000015  00000-0  00000-0 0    11,2 40349   0.0440 359.6470 0003219 116.6722 243.7135  5.00115716192771,0.044,0.0003219,5.00115716,359.647,116.6722,243.7135
40349,O3B FM11,MEO,25191.35920792,1 40349U 14083B   25191.35920792 -.00000015  00000-0  00000+0 0  8581,2 40349   0.0441 359.6233 0003223 117.4102 242.9989  5.00115679192973,0.0441,0.0003223,5.00115679,359.6233,117.4102,242.9989
